[
    {
        "Altitude(m)": 560905.5681972303,
        "Argument of Periapsis(deg)": 0.0,
        "Eccentricity": 0.0,
        "Inclination(deg)": 53.0,
        "Latitude(deg)": -25.77636515156753,
        "Longitude(deg)": -63.75192313504681,
        "Mean Anomaly(deg)": -147.27269999999996,
        "RAAN(deg)": 195.00000000000003,
        "Satellite Name": "Starlink Shell 1 871",
        "Satellite Number": 871,
        "Semi-Major Axis(m)": 6931778.249405717,
        "Time(s)": 0
    },
    {
        "Altitude(m)": 561076.8473739832,
        "Argument of Periapsis(deg)": 0.00034857847951123687,
        "Eccentricity": 0.0,
        "Inclination(deg)": 53.0,
        "Latitude(deg)": -26.243805341705624,
        "Longitude(deg)": -63.32821285023917,
        "Mean Anomaly(deg)": -146.64586879644327,
        "RAAN(deg)": 194.99948122992254,
        "Satellite Name": "Starlink Shell 1 871",
        "Satellite Number": 871,
        "Semi-Major Axis(m)": 6931778.249405717,
        "Time(s)": 10
    },
    {
        "Altitude(m)": 561248.8152820389,
        "Argument of Periapsis(deg)": 0.0006971569590224737,
        "Eccentricity": 0.0,
        "Inclination(deg)": 53.0,
        "Latitude(deg)": -26.709684429309895,
        "Longitude(deg)": -62.90079102473761,
        "Mean Anomaly(deg)": -146.01903759288655,
        "RAAN(deg)": 194.99896245984505,
        "Satellite Name": "Starlink Shell 1 871",
        "Satellite Number": 871,
        "Semi-Major Axis(m)": 6931778.249405717,
        "Time(s)": 20
    },
    {
        "Altitude(m)": 561421.4088774271,
        "Argument of Periapsis(deg)": 0.0010457354385337105,
        "Eccentricity": 0.0,
        "Inclination(deg)": 53.0,
        "Latitude(deg)": -27.173958821458942,
        "Longitude(deg)": -62.46956344992861,
        "Mean Anomaly(deg)": -145.3922063893299,
        "RAAN(deg)": 194.99844368976758,
        "Satellite Name": "Starlink Shell 1 871",
        "Satellite Number": 871,
        "Semi-Major Axis(m)": 6931778.249405717,
        "Time(s)": 30
    },
    {
        "Altitude(m)": 561594.5646891705,
        "Argument of Periapsis(deg)": 0.0013943139180449475,
        "Eccentricity": 0.0,
        "Inclination(deg)": 53.0,
        "Latitude(deg)": -27.636583989358225,
        "Longitude(deg)": -62.03443412367762,
        "Mean Anomaly(deg)": -144.76537518577314,
        "RAAN(deg)": 194.99792491969012,
        "Satellite Name": "Starlink Shell 1 871",
        "Satellite Number": 871,
        "Semi-Major Axis(m)": 6931778.249405717,
        "Time(s)": 40
    },
    {
        "Altitude(m)": 561768.2188477882,
        "Argument of Periapsis(deg)": 0.0017428923975561844,
        "Eccentricity": 0.0,
        "Inclination(deg)": 53.0,
        "Latitude(deg)": -28.097514439944025,
        "Longitude(deg)": -61.595306252732314,
        "Mean Anomaly(deg)": -144.13854398221642,
        "RAAN(deg)": 194.99740614961263,
        "Satellite Name": "Starlink Shell 1 871",
        "Satellite Number": 871,
        "Semi-Major Axis(m)": 6931778.249405717,
        "Time(s)": 50
    },
    {
        "Altitude(m)": 561942.3071139221,
        "Argument of Periapsis(deg)": 0.002091470877067421,
        "Eccentricity": 0.0,
        "Inclination(deg)": 53.0,
        "Latitude(deg)": -28.556703687003814,
        "Longitude(deg)": -61.15208174468962,
        "Mean Anomaly(deg)": -143.51171277865973,
        "RAAN(deg)": 194.99688737953517,
        "Satellite Name": "Starlink Shell 1 871",
        "Satellite Number": 871,
        "Semi-Major Axis(m)": 6931778.249405717,
        "Time(s)": 60
    },
    {
        "Altitude(m)": 562116.7649071759,
        "Argument of Periapsis(deg)": 0.0024400493565786582,
        "Eccentricity": 0.0,
        "Inclination(deg)": 53.0,
        "Latitude(deg)": -29.014104221825587,
        "Longitude(deg)": -60.70466070262273,
        "Mean Anomaly(deg)": -142.88488157510298,
        "RAAN(deg)": 194.9963686094577,
        "Satellite Name": "Starlink Shell 1 871",
        "Satellite Number": 871,
        "Semi-Major Axis(m)": 6931778.249405717,
        "Time(s)": 70
    },
    {
        "Altitude(m)": 562291.5273350717,
        "Argument of Periapsis(deg)": 0.002788627836089895,
        "Eccentricity": 0.0,
        "Inclination(deg)": 53.0,
        "Latitude(deg)": -29.46966748339488,
        "Longitude(deg)": -60.252942435476484,
        "Mean Anomaly(deg)": -142.2580503715463,
        "RAAN(deg)": 194.9958498393802,
        "Satellite Name": "Starlink Shell 1 871",
        "Satellite Number": 871,
        "Semi-Major Axis(m)": 6931778.249405717,
        "Time(s)": 80
    },
    {
        "Altitude(m)": 562466.5292221688,
        "Argument of Periapsis(deg)": 0.0031372063156011316,
        "Eccentricity": 0.0,
        "Inclination(deg)": 53.0,
        "Latitude(deg)": -29.923343828161215,
        "Longitude(deg)": -59.79682495872922,
        "Mean Anomaly(deg)": -141.63121916798954,
        "RAAN(deg)": 194.99533106930278,
        "Satellite Name": "Starlink Shell 1 871",
        "Satellite Number": 871,
        "Semi-Major Axis(m)": 6931778.249405717,
        "Time(s)": 90
    },
    {
        "Altitude(m)": 562641.7051392926,
        "Argument of Periapsis(deg)": 0.0034857847951123688,
        "Eccentricity": 0.0,
        "Inclination(deg)": 53.0,
        "Latitude(deg)": -30.375082499395933,
        "Longitude(deg)": -59.33620449846432,
        "Mean Anomaly(deg)": -141.00438796443282,
        "RAAN(deg)": 194.99481229922526,
        "Satellite Name": "Starlink Shell 1 871",
        "Satellite Number": 871,
        "Semi-Major Axis(m)": 6931778.249405717,
        "Time(s)": 100
    },
    {
        "Altitude(m)": 562816.9894328678,
        "Argument of Periapsis(deg)": 0.003834363274623606,
        "Eccentricity": 0.0,
        "Inclination(deg)": 53.0,
        "Latitude(deg)": -30.82483159617485,
        "Longitude(deg)": -58.870976512005015,
        "Mean Anomaly(deg)": -140.3775567608761,
        "RAAN(deg)": 194.99429352914782,
        "Satellite Name": "Starlink Shell 1 871",
        "Satellite Number": 871,
        "Semi-Major Axis(m)": 6931778.249405717,
        "Time(s)": 110
    },
    {
        "Altitude(m)": 562992.3162543647,
        "Argument of Periapsis(deg)": 0.004182941754134842,
        "Eccentricity": 0.0,
        "Inclination(deg)": 53.0,
        "Latitude(deg)": -31.272538042015235,
        "Longitude(deg)": -58.401035199663774,
        "Mean Anomaly(deg)": -139.75072555731938,
        "RAAN(deg)": 194.99377475907033,
        "Satellite Name": "Starlink Shell 1 871",
        "Satellite Number": 871,
        "Semi-Major Axis(m)": 6931778.249405717,
        "Time(s)": 120
    },
    {
        "Altitude(m)": 563167.6195898035,
        "Argument of Periapsis(deg)": 0.004531520233646079,
        "Eccentricity": 0.0,
        "Inclination(deg)": 53.0,
        "Latitude(deg)": -31.718147553206165,
        "Longitude(deg)": -57.92627302079791,
        "Mean Anomaly(deg)": -139.1238943537627,
        "RAAN(deg)": 194.99325598899287,
        "Satellite Name": "Starlink Shell 1 871",
        "Satellite Number": 871,
        "Semi-Major Axis(m)": 6931778.249405717,
        "Time(s)": 130
    },
    {
        "Altitude(m)": 563342.8332893504,
        "Argument of Periapsis(deg)": 0.0048800987131573164,
        "Eccentricity": 0.0,
        "Inclination(deg)": 53.0,
        "Latitude(deg)": -32.161604606878335,
        "Longitude(deg)": -57.4465817273801,
        "Mean Anomaly(deg)": -138.49706315020597,
        "RAAN(deg)": 194.99273721891538,
        "Satellite Name": "Starlink Shell 1 871",
        "Satellite Number": 871,
        "Semi-Major Axis(m)": 6931778.249405717,
        "Time(s)": 140
    },
    {
        "Altitude(m)": 563517.8910969439,
        "Argument of Periapsis(deg)": 0.005228677192668553,
        "Eccentricity": 0.0,
        "Inclination(deg)": 53.0,
        "Latitude(deg)": -32.60285240885818,
        "Longitude(deg)": -56.96185188968913,
        "Mean Anomaly(deg)": -137.87023194664928,
        "RAAN(deg)": 194.99221844883792,
        "Satellite Name": "Starlink Shell 1 871",
        "Satellite Number": 871,
        "Semi-Major Axis(m)": 6931778.249405717,
        "Time(s)": 150
    },
    {
        "Altitude(m)": 563692.7266799584,
        "Argument of Periapsis(deg)": 0.00557725567217979,
        "Eccentricity": 0.0,
        "Inclination(deg)": 53.0,
        "Latitude(deg)": -33.041832861363595,
        "Longitude(deg)": -56.47197242736873,
        "Mean Anomaly(deg)": -137.2434007430925,
        "RAAN(deg)": 194.99169967876045,
        "Satellite Name": "Starlink Shell 1 871",
        "Satellite Number": 871,
        "Semi-Major Axis(m)": 6931778.249405717,
        "Time(s)": 160
    },
    {
        "Altitude(m)": 563867.2736589208,
        "Argument of Periapsis(deg)": 0.0059258341516910265,
        "Eccentricity": 0.0,
        "Inclination(deg)": 53.0,
        "Latitude(deg)": -33.47848653060383,
        "Longitude(deg)": -55.97683165912115,
        "Mean Anomaly(deg)": -136.61656953953587,
        "RAAN(deg)": 194.99118090868296,
        "Satellite Name": "Starlink Shell 1 871",
        "Satellite Number": 871,
        "Semi-Major Axis(m)": 6931778.249405717,
        "Time(s)": 170
    },
    {
        "Altitude(m)": 564041.4656371915,
        "Argument of Periapsis(deg)": 0.006274412631202263,
        "Eccentricity": 0.0,
        "Inclination(deg)": 53.0,
        "Latitude(deg)": -33.91275261434946,
        "Longitude(deg)": -55.47631684569832,
        "Mean Anomaly(deg)": -135.98973833597913,
        "RAAN(deg)": 194.9906621386055,
        "Satellite Name": "Starlink Shell 1 871",
        "Satellite Number": 871,
        "Semi-Major Axis(m)": 6931778.249405717,
        "Time(s)": 180
    }
]